OBJECT_NAME,OBJECT_ID,EPOCH,MEAN_MOTION,ECCENTRICITY,INCLINATION,RA_OF_ASC_NODE,ARG_OF_PERICENTER,MEAN_ANOMALY,EPHEMERIS_TYPE,CLASSIFICATION_TYPE,NORAD_CAT_ID,ELEMENT_SET_NO,REV_AT_EPOCH,BSTAR,MEAN_MOTION_DOT,MEAN_MOTION_DDOT
FSI-SAT2,2026-088A,2026-06-05T03:11:34.274112,15.06734462,.0015607,97.5066,305.6973,143.8299,216.3987,0,U,68792,999,647,.34937E-3,.5147E-4,0
KAKUSHIN RISING OBJECT B,2026-088B,2026-06-03T07:59:18.037824,15.06948276,.00166245,97.5055,303.9558,145.9093,214.3206,0,U,68793,999,620,.27293254E-3,.4032E-4,0
KAKUSHIN RISING OBJECT C,2026-088C,2026-06-03T17:25:01.236000,15.07160279,.00141753,97.5059,304.3554,138.0504,222.1812,0,U,68794,999,626,.26548394E-3,.394E-4,0
ORIGAMISAT-2,2026-088D,2026-06-03T23:06:14.010624,15.08395153,.0016586,97.5045,304.6574,122.1951,238.0889,0,U,68795,999,630,.31724E-3,.4886E-4,0
ARICA-2,2026-088E,2026-06-04T00:38:04.513632,15.08313250,.0016935,97.5055,304.7138,121.8076,238.4804,0,U,68796,999,631,.36479199E-3,.5617E-4,0
WASEDA-SAT-ZERO-II,2026-088F,2026-06-01T08:53:27.363840,15.08438851,.00166694,97.5037,302.1246,130.5005,229.7679,0,U,68797,999,591,.5051439E-3,.783E-4,0
MAGNARO-II,2026-088G,2026-06-02T06:59:28.567968,15.08665251,.00202974,97.5055,303.0466,130.0536,230.2477,0,U,68798,999,605,.33522875E-3,.5214E-4,0
KAKUSHIN RISING OBJECT H,2026-088H,2026-06-03T05:15:51.481440,15.08697262,.00204696,97.5044,303.9456,126.8784,233.4325,0,U,68799,999,619,.32611642E-3,.5075E-4,0
STARLINK-37471,2026-089A,2026-06-05T04:00:03.000096,15.49178503,.0000855,97.2850,3.1180,95.4966,60.6240,0,U,68802,999,593,-.95917E-4,-.5301E-4,0
STARLINK-37460,2026-089B,2026-06-05T00:26:24.860256,15.49259435,.0002878,97.2863,2.9475,52.7597,307.3916,0,U,68803,999,676,.14704E-2,.80915E-3,0
STARLINK-37473,2026-089C,2026-06-05T04:00:03.000096,15.49178803,.0001618,97.2849,3.1174,89.1328,64.0278,0,U,68804,999,593,-.1177E-3,-.6484E-4,0
STARLINK-36832,2026-089D,2026-06-05T04:00:03.000096,15.49168088,.0001512,97.2855,3.2003,85.4071,261.2043,0,U,68805,999,593,.65368E-3,.35596E-3,0
STARLINK-37370,2026-089E,2026-06-05T00:00:02.000160,15.49120215,.0000851,97.2848,2.9400,104.0033,177.9485,0,U,68806,999,601,.24124E-2,.133032E-2,0
STARLINK-37366,2026-089F,2026-06-05T00:39:08.896320,15.49239728,.0003075,97.2839,2.9350,50.1356,310.0165,0,U,68807,999,676,.12778E-2,.70161E-3,0
STARLINK-37446,2026-089G,2026-06-05T00:23:53.947104,15.49236249,.0002601,97.2858,2.9495,60.4359,299.7151,0,U,68808,999,676,.91862E-3,.50278E-3,0
STARLINK-37405,2026-089H,2026-06-05T00:20:14.047872,15.49462513,.0001534,97.2858,2.9567,205.8432,154.2743,0,U,68809,999,676,.1771E-2,.98379E-3,0
STARLINK-37447,2026-089J,2026-06-05T04:00:03.000096,15.61324446,.00018,97.2854,3.3211,106.0329,168.1068,0,U,68810,999,594,-.35543E-1,-.2610471E-1,0
STARLINK-37442,2026-089K,2026-06-05T04:00:03.000096,15.51725388,.0001653,97.2847,3.2360,80.4169,347.2449,0,U,68811,999,599,-.60923E-1,-.3184538E-1,0
STARLINK-37431,2026-089L,2026-06-05T04:00:03.000096,15.49270584,.000093,97.2858,3.1861,128.1026,184.3618,0,U,68812,999,579,-.17757E-2,-.95771E-3,0
STARLINK-37426,2026-089M,2026-06-05T04:00:03.000096,15.62882409,.0001789,97.2848,3.3391,112.8470,201.7821,0,U,68813,999,590,-.33676E-1,-.2626268E-1,0
STARLINK-37459,2026-089N,2026-06-05T04:00:03.000096,15.49156957,.0001243,97.2852,3.1949,107.9992,227.4486,0,U,68814,999,591,.26124E-3,.14127E-3,0
STARLINK-37425,2026-089P,2026-06-05T04:00:03.000096,15.56629697,.0002084,97.2854,3.3140,108.3739,148.9612,0,U,68815,999,599,-.41718E-1,-.2622097E-1,0
STARLINK-37315,2026-089Q,2026-06-05T04:00:03.000096,15.49171772,.0001893,97.2852,3.2077,100.9621,262.9468,0,U,68816,999,599,.26679E-3,.14438E-3,0
STARLINK-37444,2026-089R,2026-06-05T04:00:03.000096,15.49198659,.0001858,97.2852,3.2164,111.7723,276.4457,0,U,68817,999,599,-.67839E-3,-.36828E-3,0
STARLINK-37450,2026-089S,2026-06-05T04:00:03.000096,15.52294088,.0002453,97.2850,3.2821,105.0037,72.2883,0,U,68818,999,599,-.58132E-1,-.3047353E-1,0
STARLINK-37409,2026-089T,2026-06-05T04:00:03.000096,15.49165940,.0001748,97.2854,3.2011,92.5920,256.4084,0,U,68819,999,599,.42123E-3,.22867E-3,0
STARLINK-37470,2026-089U,2026-06-05T04:00:03.000096,15.58812213,.0001673,97.2852,3.3330,111.4381,192.3641,0,U,68820,999,599,-.39084E-1,-.2606511E-1,0
STARLINK-37421,2026-089V,2026-06-05T04:00:03.000096,15.49182937,.0000801,97.2854,3.2038,57.1343,296.0699,0,U,68821,999,599,.52409E-3,.2851E-3,0
STARLINK-37462,2026-089W,2026-06-05T04:00:03.000096,15.60956338,.0001612,97.2849,3.3470,111.0451,225.1302,0,U,68822,999,599,-.36143E-1,-.2615802E-1,0
STARLINK-37410,2026-089X,2026-06-05T04:00:03.000096,15.49198151,.0002058,97.2849,3.2092,114.0451,255.2934,0,U,68823,999,599,.17326E-3,.9347E-4,0
