FSI-SAT2                
1 68792U 26088A   26156.13303558  .00005147  00000+0  34937-3 0  9999
2 68792  97.5066 305.6973 0015607 143.8299 216.3987 15.06734462  6476
KAKUSHIN RISING OBJECT B
1 68793U 26088B   26154.33284766  .00004032  00000+0  27293-3 0  9998
2 68793  97.5055 303.9558 0016624 145.9093 214.3206 15.06948276  6203
KAKUSHIN RISING OBJECT C
1 68794U 26088C   26154.72570875  .00003940  00000+0  26548-3 0  9990
2 68794  97.5059 304.3554 0014175 138.0504 222.1812 15.07160279  6264
ORIGAMISAT-2            
1 68795U 26088D   26154.96266216  .00004886  00000+0  31724-3 0  9990
2 68795  97.5045 304.6574 0016586 122.1951 238.0889 15.08395153  6300
ARICA-2                 
1 68796U 26088E   26155.02644113  .00005617  00000+0  36479-3 0  9990
2 68796  97.5055 304.7138 0016935 121.8076 238.4804 15.08313250  6311
WASEDA-SAT-ZERO-II      
1 68797U 26088F   26152.37045560  .00007830  00000+0  50514-3 0  9992
2 68797  97.5037 302.1246 0016669 130.5005 229.7679 15.08438851  5910
MAGNARO-II              
1 68798U 26088G   26153.29130287  .00005214  00000+0  33523-3 0  9991
2 68798  97.5055 303.0466 0020297 130.0536 230.2477 15.08665251  6056
KAKUSHIN RISING OBJECT H
1 68799U 26088H   26154.21934585  .00005075  00000+0  32612-3 0  9991
2 68799  97.5044 303.9456 0020469 126.8784 233.4325 15.08697262  6191
STARLINK-37471          
1 68802U 26089A   26156.16670139 -.00005301  00000+0 -95917-4 0  9997
2 68802  97.2850   3.1180 0000855  95.4966  60.6240 15.49178503  5935
STARLINK-37460          
1 68803U 26089B   26156.01834329  .00080915  00000+0  14704-2 0  9990
2 68803  97.2863   2.9475 0002878  52.7597 307.3916 15.49259435  6764
STARLINK-37473          
1 68804U 26089C   26156.16670139 -.00006484  00000+0 -11770-3 0  9996
2 68804  97.2849   3.1174 0001618  89.1328  64.0278 15.49178803  5930
STARLINK-36832          
1 68805U 26089D   26156.16670139  .00035596  00000+0  65368-3 0  9993
2 68805  97.2855   3.2003 0001512  85.4071 261.2043 15.49168088  5932
STARLINK-37370          
1 68806U 26089E   26156.00002315  .00133032  00000+0  24124-2 0  9990
2 68806  97.2848   2.9400 0000851 104.0033 177.9485 15.49120215  6016
STARLINK-37366          
1 68807U 26089F   26156.02718630  .00070161  00000+0  12778-2 0  9992
2 68807  97.2839   2.9350 0003075  50.1356 310.0165 15.49239728  6768
STARLINK-37446          
1 68808U 26089G   26156.01659661  .00050278  00000+0  91862-3 0  9999
2 68808  97.2858   2.9495 0002601  60.4359 299.7151 15.49236249  6764
STARLINK-37405          
1 68809U 26089H   26156.01405148  .00098379  00000+0  17710-2 0  9992
2 68809  97.2858   2.9567 0001534 205.8432 154.2743 15.49462513  6763
STARLINK-37447          
1 68810U 26089J   26156.16670139 -.02610471  00000+0 -35543-1 0  9994
2 68810  97.2854   3.3211 0001800 106.0329 168.1068 15.61324446  5944
STARLINK-37442          
1 68811U 26089K   26156.16670139 -.03184538  00000+0 -60923-1 0  9996
2 68811  97.2847   3.2360 0001653  80.4169 347.2449 15.51725388  5991
STARLINK-37431          
1 68812U 26089L   26156.16670139 -.00095771  00000+0 -17757-2 0  9992
2 68812  97.2858   3.1861 0000930 128.1026 184.3618 15.49270584  5794
STARLINK-37426          
1 68813U 26089M   26156.16670139 -.02626268  00000+0 -33676-1 0  9993
2 68813  97.2848   3.3391 0001789 112.8470 201.7821 15.62882409  5903
STARLINK-37459          
1 68814U 26089N   26156.16670139  .00014127  00000+0  26124-3 0  9997
2 68814  97.2852   3.1949 0001243 107.9992 227.4486 15.49156957  5915
STARLINK-37425          
1 68815U 26089P   26156.16670139 -.02622097  00000+0 -41718-1 0  9997
2 68815  97.2854   3.3140 0002084 108.3739 148.9612 15.56629697  5991
STARLINK-37315          
1 68816U 26089Q   26156.16670139  .00014438  00000+0  26679-3 0  9999
2 68816  97.2852   3.2077 0001893 100.9621 262.9468 15.49171772  5997
STARLINK-37444          
1 68817U 26089R   26156.16670139 -.00036828  00000+0 -67839-3 0  9992
2 68817  97.2852   3.2164 0001858 111.7723 276.4457 15.49198659  5990
STARLINK-37450          
1 68818U 26089S   26156.16670139 -.03047353  00000+0 -58132-1 0  9995
2 68818  97.2850   3.2821 0002453 105.0037  72.2883 15.52294088  5997
STARLINK-37409          
1 68819U 26089T   26156.16670139  .00022867  00000+0  42123-3 0  9999
2 68819  97.2854   3.2011 0001748  92.5920 256.4084 15.49165940  5999
STARLINK-37470          
1 68820U 26089U   26156.16670139 -.02606511  00000+0 -39084-1 0  9999
2 68820  97.2852   3.3330 0001673 111.4381 192.3641 15.58812213  5992
STARLINK-37421          
1 68821U 26089V   26156.16670139  .00028510  00000+0  52409-3 0  9991
2 68821  97.2854   3.2038 0000801  57.1343 296.0699 15.49182937  5993
STARLINK-37462          
1 68822U 26089W   26156.16670139 -.02615802  00000+0 -36143-1 0  9997
2 68822  97.2849   3.3470 0001612 111.0451 225.1302 15.60956338  5991
STARLINK-37410          
1 68823U 26089X   26156.16670139  .00009347  00000+0  17326-3 0  9999
2 68823  97.2849   3.2092 0002058 114.0451 255.2934 15.49198151  5992
